NORAD_CAT_ID,OBJECT_NAME,OBJECT_TYPE,EPOCH,MEAN_MOTION,ECCENTRICITY,INCLINATION,RA_OF_ASC_NODE,ARG_OF_PERICENTER,MEAN_ANOMALY,BSTAR,MEAN_MOTION_DOT,MEAN_MOTION_DDOT,TLE_LINE0,TLE_LINE1,TLE_LINE2,SEMIMAJOR_AXIS,PERIOD,APOGEE,PERIGEE,DECAYED
53153.0,STARLINK-4098,PAYLOAD,2024-04-15 03:08:38,15.08846122,0.0001623,53.2206,37.621,71.8667,288.2502,5.2894e-05,5.54e-06,0.0,0 STARLINK-4098,1 53153U 22083X   24106.13099563  .00000554  00000-0  52894-4 0  9997,2 53153  53.2206  37.6210 0001623  71.8667 288.2502 15.08846122 97283,6917.862,95.437,540.849,538.604,0.0
53153.0,STARLINK-4098,PAYLOAD,2024-04-15 19:02:29,15.0884806,0.0001446,53.2197,34.6545,80.1351,279.9804,2.8651e-07,-2.83e-06,0.0,0 STARLINK-4098,1 53153U 22083X   24106.79339643 -.00000283  00000-0  28651-6 0  9991,2 53153  53.2197  34.6545 0001446  80.1351 279.9804 15.08848060 96752,6917.856,95.437,540.721,538.72,0.0
53153.0,STARLINK-4098,PAYLOAD,2024-04-16 04:34:47,15.08855558,0.0001249,53.2193,32.8658,85.1256,274.9879,7.911e-05,9.72e-06,0.0,0 STARLINK-4098,1 53153U 22083X   24107.19082686  .00000972  00000-0  79110-4 0  9996,2 53153  53.2193  32.8658 0001249  85.1256 274.9879 15.08855558 97447,6917.833,95.437,540.562,538.834,0.0
53153.0,STARLINK-4098,PAYLOAD,2024-04-16 12:31:42,15.08859607,0.0001137,53.2185,31.3793,95.3798,264.7324,7.5623e-05,9.17e-06,0.0,0 STARLINK-4098,1 53153U 22083X   24107.52202082  .00000917  00000-0  75623-4 0  9991,2 53153  53.2185  31.3793 0001137  95.3798 264.7324 15.08859607 96868,6917.82,95.436,540.472,538.899,0.0
53153.0,STARLINK-4098,PAYLOAD,2024-04-16 22:04:01,15.08855001,0.0001288,53.2179,29.595,88.4857,271.6283,0.00015188,2.131e-05,0.0,0 STARLINK-4098,1 53153U 22083X   24107.91946635  .00002131  00000-0  15188-3 0  9992,2 53153  53.2179  29.5950 0001288  88.4857 271.6283 15.08855001 96923,6917.835,95.437,540.591,538.809,0.0
53153.0,STARLINK-4098,PAYLOAD,2024-04-17 01:14:47,15.08868499,0.0001674,53.2191,29.0006,110.2679,249.8493,0.00032247,4.852e-05,0.0,0 STARLINK-4098,1 53153U 22083X   24108.05193736  .00004852  00000-0  32247-3 0  9991,2 53153  53.2191  29.0006 0001674 110.2679 249.8493 15.08868499 96946,6917.793,95.436,540.816,538.5,0.0
53153.0,STARLINK-4098,PAYLOAD,2024-04-17 21:54:49,15.08836013,0.0001422,53.2173,25.1316,74.3498,285.7651,-3.9166e-06,-3.5e-06,0.0,0 STARLINK-4098,1 53153U 22083X   24108.91307568 -.00000350  00000-0 -39166-5 0  9996,2 53153  53.2173  25.1316 0001422  74.3498 285.7651 15.08836013 97074,6917.893,95.438,540.741,538.774,0.0
53153.0,STARLINK-4098,PAYLOAD,2024-04-18 01:05:35,15.08837525,0.0001268,53.2179,24.5397,86.5532,273.5605,-6.8304e-05,-1.375e-05,0.0,0 STARLINK-4098,1 53153U 22083X   24109.04555469 -.00001375  00000-0 -68304-4 0  9999,2 53153  53.2179  24.5397 0001268  86.5532 273.5605 15.08837525 97729,6917.888,95.438,540.63,538.876,0.0
53153.0,STARLINK-4098,PAYLOAD,2024-04-18 21:45:37,15.08833515,0.0001496,53.2196,20.6732,96.0611,264.0552,-9.5209e-05,-1.803e-05,0.0,0 STARLINK-4098,1 53153U 22083X   24109.90667997 -.00001803  00000-0 -95209-4 0  9994,2 53153  53.2196  20.6732 0001496  96.0611 264.0552 15.08833515 97221,6917.9,95.438,540.8,538.73,0.0
53153.0,STARLINK-4098,PAYLOAD,2024-04-19 00:56:22,15.0885347,0.0001428,53.2185,20.081,112.9267,247.1876,4.6187e-05,4.47e-06,0.0,0 STARLINK-4098,1 53153U 22083X   24110.03914730  .00000447  00000-0  46187-4 0  9992,2 53153  53.2185  20.0810 0001428 112.9267 247.1876 15.08853470 97874,6917.839,95.437,540.692,538.716,0.0
53153.0,STARLINK-4098,PAYLOAD,2024-04-19 16:50:14,15.08834947,0.0001769,53.2197,17.1082,118.6903,241.4267,0.00019504,2.817e-05,0.0,0 STARLINK-4098,1 53153U 22083X   24110.70156116  .00002817  00000-0  19504-3 0  9997,2 53153  53.2197  17.1082 0001769 118.6903 241.4267 15.08834947 97973,6917.896,95.438,540.985,538.537,0.0
53153.0,STARLINK-4098,PAYLOAD,2024-04-19 21:36:24,15.08837185,0.000169,53.2196,16.2162,106.911,253.2068,0.00021337,3.109e-05,0.0,0 STARLINK-4098,1 53153U 22083X   24110.90028140  .00003109  00000-0  21337-3 0  9996,2 53153  53.2196  16.2162 0001690 106.9110 253.2068 15.08837185 97375,6917.889,95.438,540.923,538.585,0.0
53153.0,STARLINK-4098,PAYLOAD,2024-04-20 02:22:32,15.08860843,0.0001561,53.2189,15.3129,101.0918,259.025,0.00053851,8.298e-05,0.0,0 STARLINK-4098,1 53153U 22083X   24111.09899031  .00008298  00000-0  53851-3 0  9992,2 53153  53.2189  15.3129 0001561 101.0918 259.0250 15.08860843 98037,6917.817,95.436,540.762,538.602,0.0
53153.0,STARLINK-4098,PAYLOAD,2024-04-20 21:27:12,15.0882811,0.0001561,53.2189,11.7522,101.0495,259.0673,-0.00020011,-3.47e-05,0.0,0 STARLINK-4098,1 53153U 22083X   24111.89389007 -.00003470  00000-0 -20011-3 0  9998,2 53153  53.2189  11.7522 0001561 101.0495 259.0673 15.08828110 97527,6917.917,95.438,540.862,538.702,0.0
53153.0,STARLINK-4098,PAYLOAD,2024-04-21 02:13:21,15.08824386,0.00018,53.2194,10.865,113.3058,246.8123,-0.00014487,-2.592e-05,0.0,0 STARLINK-4098,1 53153U 22083X   24112.09261414 -.00002592  00000-0 -14487-3 0  9996,2 53153  53.2194  10.8650 0001800 113.3058 246.8123 15.08824386 98180,6917.928,95.439,541.038,538.548,0.0
53153.0,STARLINK-4098,PAYLOAD,2024-04-21 22:53:20,15.08871026,0.0001789,53.2199,6.9876,121.477,238.6398,0.00034762,5.253e-05,0.0,0 STARLINK-4098,1 53153U 22083X   24112.95371216  .00005253  00000-0  34762-3 0  9996,2 53153  53.2199   6.9876 0001789 121.4770 238.6398 15.08871026 97688,6917.786,95.436,540.888,538.413,0.0
53153.0,STARLINK-4098,PAYLOAD,2024-04-22 00:28:44,15.08866029,0.0001645,53.22,6.6909,89.9825,270.1355,0.00030404,4.557e-05,0.0,0 STARLINK-4098,1 53153U 22083X   24113.01995577  .00004557  00000-0  30404-3 0  9991,2 53153  53.2200   6.6909 0001645  89.9825 270.1355 15.08866029 98328,6917.801,95.436,540.804,538.528,0.0
53153.0,STARLINK-4098,PAYLOAD,2024-04-22 16:22:37,15.08834671,0.0001571,53.2182,3.7267,110.3171,249.799,0.00022058,3.224e-05,0.0,0 STARLINK-4098,1 53153U 22083X   24113.68237575  .00003224  00000-0  22058-3 0  9997,2 53153  53.2182   3.7267 0001571 110.3171 249.7990 15.08834671 98429,6917.897,95.438,540.848,538.675,0.0
53153.0,STARLINK-4098,PAYLOAD,2024-04-22 22:44:09,15.08841291,0.0001476,53.217,2.5383,110.8203,249.2948,0.00022217,3.25e-05,0.0,0 STARLINK-4098,1 53153U 22083X   24113.94733225  .00003250  00000-0  22217-3 0  9995,2 53153  53.2170   2.5383 0001476 110.8203 249.2948 15.08841291 97835,6917.876,95.437,540.763,538.72,0.0
53153.0,STARLINK-4098,PAYLOAD,2024-04-23 00:19:32,15.0885283,0.0001299,53.2181,2.2379,101.3431,258.7707,0.0004667,7.15e-05,0.0,0 STARLINK-4098,1 53153U 22083X   24114.01357003  .00007150  00000-0  46670-3 0  9992,2 53153  53.2181   2.2379 0001299 101.3431 258.7707 15.08852830 98470,6917.841,95.437,540.605,538.808,0.0
53153.0,STARLINK-4098,PAYLOAD,2024-04-23 20:59:33,15.08846022,0.0001946,53.2204,358.3717,68.6985,291.4215,-4.2985e-06,-3.57e-06,0.0,0 STARLINK-4098,1 53153U 22083X   24114.87469051 -.00000357  00000-0 -42985-5 0  9994,2 53153  53.2204 358.3717 0001946  68.6985 291.4215 15.08846022 98604,6917.862,95.437,541.073,538.381,0.0
53153.0,STARLINK-4098,PAYLOAD,2024-04-23 22:34:55,15.08863806,0.000151,53.2197,358.0764,97.5992,262.5172,0.00037057,5.618e-05,0.0,0 STARLINK-4098,1 53153U 22083X   24114.94092376  .00005618  00000-0  37057-3 0  9999,2 53153  53.2197 358.0764 0001510  97.5992 262.5172 15.08863806 97980,6917.808,95.436,540.717,538.628,0.0
53153.0,STARLINK-4098,PAYLOAD,2024-04-24 01:45:41,15.08866279,0.0001432,53.2196,357.4799,85.7941,274.3214,0.00045228,6.923e-05,0.0,0 STARLINK-4098,1 53153U 22083X   24115.07340255  .00006923  00000-0  45228-3 0  9995,2 53153  53.2196 357.4799 0001432  85.7941 274.3214 15.08866279 98634,6917.8,95.436,540.656,538.674,0.0
53153.0,STARLINK-4098,PAYLOAD,2024-04-24 20:50:20,15.08839248,0.0001205,53.2186,353.9134,83.4381,276.6749,-2.7221e-05,-7.21e-06,0.0,0 STARLINK-4098,1 53153U 22083X   24115.86829062 -.00000721  00000-0 -27221-4 0  9996,2 53153  53.2186 353.9134 0001205  83.4381 276.6749 15.08839248 98755,6917.883,95.438,540.581,538.914,0.0
53153.0,STARLINK-4098,PAYLOAD,2024-04-24 22:25:43,15.08841145,0.0001558,53.2185,353.6159,74.3849,285.7315,3.6306e-05,2.9e-06,0.0,0 STARLINK-4098,1 53153U 22083X   24115.93453146  .00000290  00000-0  36306-4 0  9993,2 53153  53.2185 353.6159 0001558  74.3849 285.7315 15.08841145 98138,6917.877,95.437,540.82,538.664,0.0
53153.0,STARLINK-4098,PAYLOAD,2024-04-25 01:36:29,15.08846682,0.000177,53.2205,353.012,132.0296,228.0847,0.00019394,2.8e-05,0.0,0 STARLINK-4098,1 53153U 22083X   24116.06700864  .00002800  00000-0  19394-3 0  9996,2 53153  53.2205 353.0120 0001770 132.0296 228.0847 15.08846682 98789,6917.86,95.437,540.949,538.501,0.0
53153.0,STARLINK-4098,PAYLOAD,2024-04-25 22:16:30,15.08843836,0.0001372,53.2192,349.1521,87.295,272.8199,3.2783e-05,2.34e-06,0.0,0 STARLINK-4098,1 53153U 22083X   24116.92812880  .00000234  00000-0  32783-4 0  9990,2 53153  53.2192 349.1521 0001372  87.2950 272.8199 15.08843836 98281,6917.869,95.437,540.683,538.785,0.0
53153.0,STARLINK-4098,PAYLOAD,2024-04-26 15:45:45,15.08840964,0.0001337,53.2188,345.8825,92.0365,268.078,9.8817e-05,1.285e-05,0.0,0 STARLINK-4098,1 53153U 22083X   24117.65677408  .00001285  00000-0  98817-4 0  9993,2 53153  53.2188 345.8825 0001337  92.0365 268.0780 15.08840964 99026,6917.877,95.437,540.667,538.818,0.0
53153.0,STARLINK-4098,PAYLOAD,2024-04-27 01:18:03,15.08855046,0.0001355,53.2182,344.0979,90.0582,270.0565,0.00034949,5.281e-05,0.0,0 STARLINK-4098,1 53153U 22083X   24118.05420795  .00005281  00000-0  34949-3 0  9998,2 53153  53.2182 344.0979 0001355  90.0582 270.0565 15.08855046 99087,6917.834,95.437,540.637,538.762,0.0
53153.0,STARLINK-4098,PAYLOAD,2024-04-27 07:39:36,15.0884855,0.0001363,53.2185,342.9061,81.537,278.5777,0.00031657,4.755e-05,0.0,0 STARLINK-4098,1 53153U 22083X   24118.31916992  .00004755  00000-0  31657-3 0  9994,2 53153  53.2185 342.9061 0001363  81.5370 278.5777 15.08848550 99123,6917.854,95.437,540.662,538.776,0.0
